[Satellite]
VERSION=1.1
NAME=INMARSAT 3-F1
NICKNAME=INMARSAT 3-F1
TLE1=1 23839U 96020A   15054.79130112 -.00000015  00000-0  00000+0 0  9997
TLE2=2 23839   2.3546  71.5691 0005496 257.6902 173.4199  1.00272921 69194
